[{"OBJECT_NAME":"EUTELSAT 7 WEST A","OBJECT_ID":"2011-051A","EPOCH":"2026-03-06T05:21:54.593856","MEAN_MOTION":1.00272171,"ECCENTRICITY":0.00010046,"INCLINATION":0.0701,"RA_OF_ASC_NODE":12.5541,"ARG_OF_PERICENTER":226.4356,"MEAN_ANOMALY":358.1081,"EPHEMERIS_TYPE":0,"CLASSIFICATION_TYPE":"U","NORAD_CAT_ID":37816,"ELEMENT_SET_NO":999,"REV_AT_EPOCH":5284,"BSTAR":0,"MEAN_MOTION_DOT":-6.5e-7,"MEAN_MOTION_DDOT":0},{"OBJECT_NAME":"QUETZSAT 1","OBJECT_ID":"2011-054A","EPOCH":"2026-03-06T04:08:38.676768","MEAN_MOTION":1.00270897,"ECCENTRICITY":0.00028087,"INCLINATION":0.0497,"RA_OF_ASC_NODE":292.4662,"ARG_OF_PERICENTER":72.1609,"MEAN_ANOMALY":144.412,"EPHEMERIS_TYPE":0,"CLASSIFICATION_TYPE":"U","NORAD_CAT_ID":37826,"ELEMENT_SET_NO":999,"REV_AT_EPOCH":4884,"BSTAR":0,"MEAN_MOTION_DOT":-2.47e-6,"MEAN_MOTION_DDOT":0},{"OBJECT_NAME":"INTELSAT 18 (IS-18)","OBJECT_ID":"2011-056A","EPOCH":"2026-03-06T06:15:26.959680","MEAN_MOTION":1.002744,"ECCENTRICITY":0.00019211,"INCLINATION":0.0379,"RA_OF_ASC_NODE":265.9124,"ARG_OF_PERICENTER":78.0185,"MEAN_ANOMALY":93.9005,"EPHEMERIS_TYPE":0,"CLASSIFICATION_TYPE":"U","NORAD_CAT_ID":37834,"ELEMENT_SET_NO":999,"REV_AT_EPOCH":5277,"BSTAR":0,"MEAN_MOTION_DOT":4.8e-7,"MEAN_MOTION_DDOT":0},{"OBJECT_NAME":"EUTELSAT 16A","OBJECT_ID":"2011-057A","EPOCH":"2026-03-06T05:28:31.460160","MEAN_MOTION":1.00272292,"ECCENTRICITY":0.00054758,"INCLINATION":0.056,"RA_OF_ASC_NODE":357.1575,"ARG_OF_PERICENTER":349.8259,"MEAN_ANOMALY":275.0817,"EPHEMERIS_TYPE":0,"CLASSIFICATION_TYPE":"U","NORAD_CAT_ID":37836,"ELEMENT_SET_NO":999,"REV_AT_EPOCH":630,"BSTAR":0,"MEAN_MOTION_DOT":9.9e-7,"MEAN_MOTION_DDOT":0},{"OBJECT_NAME":"VIASAT-1","OBJECT_ID":"2011-059A","EPOCH":"2026-03-05T20:03:09.006624","MEAN_MOTION":1.00273952,"ECCENTRICITY":0.0002229,"INCLINATION":0.017,"RA_OF_ASC_NODE":166.745,"ARG_OF_PERICENTER":186.7509,"MEAN_ANOMALY":355.7291,"EPHEMERIS_TYPE":0,"CLASSIFICATION_TYPE":"U","NORAD_CAT_ID":37843,"ELEMENT_SET_NO":999,"REV_AT_EPOCH":4628,"BSTAR":0,"MEAN_MOTION_DOT":-3.0e-7,"MEAN_MOTION_DDOT":0},{"OBJECT_NAME":"ASIASAT 7","OBJECT_ID":"2011-069A","EPOCH":"2026-03-06T00:46:06.041568","MEAN_MOTION":1.00268057,"ECCENTRICITY":9.63e-5,"INCLINATION":0.0083,"RA_OF_ASC_NODE":144.1856,"ARG_OF_PERICENTER":203.7823,"MEAN_ANOMALY":292.7495,"EPHEMERIS_TYPE":0,"CLASSIFICATION_TYPE":"U","NORAD_CAT_ID":37933,"ELEMENT_SET_NO":999,"REV_AT_EPOCH":4382,"BSTAR":0,"MEAN_MOTION_DOT":-3.39e-6,"MEAN_MOTION_DDOT":0},{"OBJECT_NAME":"BEIDOU-2 IGSO-5","OBJECT_ID":"2011-073A","EPOCH":"2026-03-04T13:08:52.662336","MEAN_MOTION":1.00272598,"ECCENTRICITY":0.01085888,"INCLINATION":47.8676,"RA_OF_ASC_NODE":272.8369,"ARG_OF_PERICENTER":221.1171,"MEAN_ANOMALY":320.721,"EPHEMERIS_TYPE":0,"CLASSIFICATION_TYPE":"U","NORAD_CAT_ID":37948,"ELEMENT_SET_NO":999,"REV_AT_EPOCH":5208,"BSTAR":0,"MEAN_MOTION_DOT":-1.53e-6,"MEAN_MOTION_DDOT":0},{"OBJECT_NAME":"LUCH-5A","OBJECT_ID":"2011-074B","EPOCH":"2026-03-06T06:11:42.318816","MEAN_MOTION":1.00275932,"ECCENTRICITY":0.00038907,"INCLINATION":8.4918,"RA_OF_ASC_NODE":75.3187,"ARG_OF_PERICENTER":247.7042,"MEAN_ANOMALY":101.0013,"EPHEMERIS_TYPE":0,"CLASSIFICATION_TYPE":"U","NORAD_CAT_ID":37951,"ELEMENT_SET_NO":999,"REV_AT_EPOCH":5201,"BSTAR":0,"MEAN_MOTION_DOT":-5.0e-7,"MEAN_MOTION_DDOT":0},{"OBJECT_NAME":"NIGCOMSAT 1R","OBJECT_ID":"2011-077A","EPOCH":"2026-03-05T08:45:38.834784","MEAN_MOTION":1.00277927,"ECCENTRICITY":0.000268,"INCLINATION":0.065,"RA_OF_ASC_NODE":252.7202,"ARG_OF_PERICENTER":78.1374,"MEAN_ANOMALY":6.202,"EPHEMERIS_TYPE":0,"CLASSIFICATION_TYPE":"U","NORAD_CAT_ID":38014,"ELEMENT_SET_NO":999,"REV_AT_EPOCH":5191,"BSTAR":0,"MEAN_MOTION_DOT":1.36e-6,"MEAN_MOTION_DDOT":0},{"OBJECT_NAME":"WGS F4 (USA 233)","OBJECT_ID":"2012-003A","EPOCH":"2026-03-05T17:50:27.060000","MEAN_MOTION":1.00272851,"ECCENTRICITY":6.14e-5,"INCLINATION":0.0097,"RA_OF_ASC_NODE":151.3509,"ARG_OF_PERICENTER":134.3109,"MEAN_ANOMALY":233.7866,"EPHEMERIS_TYPE":0,"CLASSIFICATION_TYPE":"U","NORAD_CAT_ID":38070,"ELEMENT_SET_NO":999,"REV_AT_EPOCH":4311,"BSTAR":0,"MEAN_MOTION_DOT":-2.21e-6,"MEAN_MOTION_DDOT":0},{"OBJECT_NAME":"SES-4","OBJECT_ID":"2012-007A","EPOCH":"2026-03-05T10:28:09.470208","MEAN_MOTION":1.00260475,"ECCENTRICITY":0.0002347,"INCLINATION":0.0359,"RA_OF_ASC_NODE":66.5072,"ARG_OF_PERICENTER":256.9214,"MEAN_ANOMALY":334.7775,"EPHEMERIS_TYPE":0,"CLASSIFICATION_TYPE":"U","NORAD_CAT_ID":38087,"ELEMENT_SET_NO":999,"REV_AT_EPOCH":5118,"BSTAR":0,"MEAN_MOTION_DOT":-1.78e-6,"MEAN_MOTION_DDOT":0},{"OBJECT_NAME":"BEIDOU-2 G5","OBJECT_ID":"2012-008A","EPOCH":"2026-03-06T02:15:27.472608","MEAN_MOTION":1.00277131,"ECCENTRICITY":0.00140172,"INCLINATION":3.3168,"RA_OF_ASC_NODE":70.3057,"ARG_OF_PERICENTER":251.3989,"MEAN_ANOMALY":294.8001,"EPHEMERIS_TYPE":0,"CLASSIFICATION_TYPE":"U","NORAD_CAT_ID":38091,"ELEMENT_SET_NO":999,"REV_AT_EPOCH":5133,"BSTAR":0,"MEAN_MOTION_DOT":5.1e-7,"MEAN_MOTION_DDOT":0},{"OBJECT_NAME":"MUOS-1","OBJECT_ID":"2012-009A","EPOCH":"2026-03-06T01:30:16.804800","MEAN_MOTION":1.00273621,"ECCENTRICITY":0.00572166,"INCLINATION":5.2646,"RA_OF_ASC_NODE":47.1936,"ARG_OF_PERICENTER":357.7917,"MEAN_ANOMALY":41.3597,"EPHEMERIS_TYPE":0,"CLASSIFICATION_TYPE":"U","NORAD_CAT_ID":38093,"ELEMENT_SET_NO":999,"REV_AT_EPOCH":5141,"BSTAR":0,"MEAN_MOTION_DOT":-1.31e-6,"MEAN_MOTION_DDOT":0},{"OBJECT_NAME":"INTELSAT 22 (IS-22)","OBJECT_ID":"2012-011A","EPOCH":"2026-03-06T02:19:12.114336","MEAN_MOTION":1.0027131,"ECCENTRICITY":0.00016684,"INCLINATION":0.0028,"RA_OF_ASC_NODE":173.3912,"ARG_OF_PERICENTER":192.4141,"MEAN_ANOMALY":264.9179,"EPHEMERIS_TYPE":0,"CLASSIFICATION_TYPE":"U","NORAD_CAT_ID":38098,"ELEMENT_SET_NO":999,"REV_AT_EPOCH":615,"BSTAR":0,"MEAN_MOTION_DOT":-6.4e-7,"MEAN_MOTION_DDOT":0},{"OBJECT_NAME":"APSTAR-7","OBJECT_ID":"2012-013A","EPOCH":"2026-03-06T04:03:09.644832","MEAN_MOTION":1.0027183,"ECCENTRICITY":0.00023711,"INCLINATION":0.0091,"RA_OF_ASC_NODE":171.8481,"ARG_OF_PERICENTER":174.5566,"MEAN_ANOMALY":314.7604,"EPHEMERIS_TYPE":0,"CLASSIFICATION_TYPE":"U","NORAD_CAT_ID":38107,"ELEMENT_SET_NO":999,"REV_AT_EPOCH":5077,"BSTAR":0,"MEAN_MOTION_DOT":-1.06e-6,"MEAN_MOTION_DDOT":0},{"OBJECT_NAME":"YAHSAT 1B","OBJECT_ID":"2012-016A","EPOCH":"2026-03-06T05:50:38.914944","MEAN_MOTION":1.00273726,"ECCENTRICITY":0.00032625,"INCLINATION":0.088,"RA_OF_ASC_NODE":91.6596,"ARG_OF_PERICENTER":259.9703,"MEAN_ANOMALY":307.5907,"EPHEMERIS_TYPE":0,"CLASSIFICATION_TYPE":"U","NORAD_CAT_ID":38245,"ELEMENT_SET_NO":999,"REV_AT_EPOCH":4457,"BSTAR":0,"MEAN_MOTION_DOT":1.21e-6,"MEAN_MOTION_DDOT":0},{"OBJECT_NAME":"AEHF-2 (USA 235)","OBJECT_ID":"2012-019A","EPOCH":"2026-03-06T04:50:14.676000","MEAN_MOTION":1.00273275,"ECCENTRICITY":0.0003144,"INCLINATION":6.4114,"RA_OF_ASC_NODE":58.2348,"ARG_OF_PERICENTER":276.8421,"MEAN_ANOMALY":244.9087,"EPHEMERIS_TYPE":0,"CLASSIFICATION_TYPE":"U","NORAD_CAT_ID":38254,"ELEMENT_SET_NO":999,"REV_AT_EPOCH":595,"BSTAR":0,"MEAN_MOTION_DOT":-1.38e-6,"MEAN_MOTION_DDOT":0}]
